{
  "amenity/ATM|Bank of America": {
    "countryCodes": ["us"],
    "tags": {
      "amenity": "bank",
      "brand": "Bank of America",
      "brand:wikidata": "Q487907",
      "brand:wikipedia": "en:Bank of America",
      "operator": "Bank of America",
      "operator:wikidata": "Q487907",
      "network": "Global ATM Alliance",
      "network:wikidata": "Q751431",
      "name": "Bank of America"
    }
  },
  "amenity/ATM|Chase": {
    "matchNames": ["chase bank"],
    "tags": {
      "amenity": "bank",
      "brand": "Chase",
      "brand:wikidata": "Q524629",
      "brand:wikipedia": "en:Chase Bank",
      "name": "Chase"
    }
  },
  "amenity/ATM|Navy Federal Credit Union": {
    "tags": {
      "amenity": "ATM",
      "brand": "Navy Federal Credit Union",
      "brand:wikidata": "Q6982632",
      "brand:wikipedia": "en:Navy Federal Credit Union",
      "operator": "Navy Federal Credit Union",
      "operator:wikidata": "Q6982632",
      "network": "Plus",
      "network:wikidata": "Q2423111",
      "name": "Navy Federal Credit Union"
    }
  },
  "amenity/ATM|USAA": {
    "tags": {
      "amenity": "ATM",
      "brand": "USAA",
      "brand:wikidata": "Q7865722",
      "brand:wikipedia": "en:USAA",
      "name": "USAA",
      "operator": "USAA",
      "operator:wikidata": "Q7865722",
      "network": "Allpoint",
      "network:wikidata": "Q4733264",
      "official_name": "United Services Automobile Association"
    }
  },
      "amenity/ATM|U.S. Bank": {
        "countryCodes": ["us"],
        "tags": {
          "amenity": "bank",
          "brand": "U.S. Bank",
          "brand:wikidata": "Q739084",
          "brand:wikipedia": "en:U.S. Bancorp",
          "operator": "U.S. Bank",
          "operator:wikidata": "Q739084",
          "network": "MoneyPass",
          "network:wikidata": "Q28447513",
          "name": "U.S. Bank"
    }
  }
}